1 35946U 09055A   22096.86822363  .00000118  00000+0  53694-4 0  9993
2 35946  98.4895 172.9012 0001345 146.8620 213.2633 14.37649506655623